start=new Date('2022-08-17T00:00:00.000Z').valueOf();
sats=[{"COUNTRY_CODE":"US","ELEMENT_SET_NO":"999","OBJECT_ID":"2021-036BG","EPOCH":"2022-08-16T21:12:55.751040","SEMIMAJOR_AXIS":"6925.337","REF_FRAME":"TEME","MEAN_ANOMALY":"278.5795","EPHEMERIS_TYPE":"0","BSTAR":"0.00011635000000","ECCENTRICITY":"0.00015030","LAUNCH_DATE":"2021-04-29","RA_OF_ASC_NODE":"181.1674","INCLINATION":"53.0544","MEAN_MOTION_DDOT":"0.0000000000000","OBJECT_NAME":"STARLINK-2501","TIME_SYSTEM":"UTC","CENTER_NAME":"EARTH","REV_AT_EPOCH":"7256","OBJECT_TYPE":"PAYLOAD","GP_ID":"210344120","RCS_SIZE":"LARGE","TLE_LINE1":"1 48330U 21036BG  22228.88397860  .00001452  00000-0  11635-3 0  9996","PERIOD":"95.592","CLASSIFICATION_TYPE":"U","ARG_OF_PERICENTER":"81.5364","NORAD_CAT_ID":"48330","MEAN_ELEMENT_THEORY":"SGP4","MEAN_MOTION_DOT":"0.00001452","MEAN_MOTION":"15.06403686","PERIAPSIS":"546.161","DECAY_DATE":null,"SITE":"AFETR","FILE":"3538109","APOAPSIS":"548.243","TLE_LINE2":"2 48330  53.0544 181.1674 0001503  81.5364 278.5795 15.06403686 72567"},{"SITE":"AFETR","APOAPSIS":"548.403","FILE":"3537973","TLE_LINE2":"2 48331  53.0539 184.4616 0001689  61.6120 298.5039 15.06393538 71867","MEAN_MOTION":"15.06393538","MEAN_MOTION_DOT":"0.00000139","PERIAPSIS":"546.064","DECAY_DATE":null,"PERIOD":"95.593","ARG_OF_PERICENTER":"61.6120","CLASSIFICATION_TYPE":"U","MEAN_ELEMENT_THEORY":"SGP4","NORAD_CAT_ID":"48331","RCS_SIZE":"LARGE","GP_ID":"210337401","TLE_LINE1":"1 48331U 21036BH  22228.15047948  .00000139  00000-0  28208-4 0  9992","MEAN_MOTION_DDOT":"0.0000000000000","OBJECT_NAME":"STARLINK-2514","TIME_SYSTEM":"UTC","OBJECT_TYPE":"PAYLOAD","CENTER_NAME":"EARTH","REV_AT_EPOCH":"7186","RA_OF_ASC_NODE":"184.4616","INCLINATION":"53.0539","BSTAR":"0.00002820800000","ECCENTRICITY":"0.00016890","LAUNCH_DATE":"2021-04-29","OBJECT_ID":"2021-036BH","COUNTRY_CODE":"US","ELEMENT_SET_NO":"999","SEMIMAJOR_AXIS":"6925.368","EPOCH":"2022-08-16T03:36:41.427072","MEAN_ANOMALY":"298.5039","REF_FRAME":"TEME","EPHEMERIS_TYPE":"0"},{"RCS_SIZE":"LARGE","GP_ID":"210336149","TLE_LINE1":"1 48332U 21036BJ  22228.14953807 -.00001376  00000-0 -73515-4 0  9999","PERIOD":"95.592","ARG_OF_PERICENTER":"62.6106","CLASSIFICATION_TYPE":"U","MEAN_ELEMENT_THEORY":"SGP4","NORAD_CAT_ID":"48332","MEAN_MOTION":"15.06397416","MEAN_MOTION_DOT":"-0.00001376","PERIAPSIS":"546.052","DECAY_DATE":null,"SITE":"AFETR","APOAPSIS":"548.391","FILE":"3537973","TLE_LINE2":"2 48332  53.0536 184.4488 0001689  62.6106 297.5055 15.06397416 71863","COUNTRY_CODE":"US","ELEMENT_SET_NO":"999","OBJECT_ID":"2021-036BJ","REF_FRAME":"TEME","SEMIMAJOR_AXIS":"6925.356","MEAN_ANOMALY":"297.5055","EPOCH":"2022-08-16T03:35:20.089248","EPHEMERIS_TYPE":"0","BSTAR":"-0.00007351500000","ECCENTRICITY":"0.00016890","LAUNCH_DATE":"2021-04-29","RA_OF_ASC_NODE":"184.4488","INCLINATION":"53.0536","MEAN_MOTION_DDOT":"0.0000000000000","OBJECT_NAME":"STARLINK-2511","TIME_SYSTEM":"UTC","OBJECT_TYPE":"PAYLOAD","CENTER_NAME":"EARTH","REV_AT_EPOCH":"7186"},{"CLASSIFICATION_TYPE":"U","ARG_OF_PERICENTER":"67.9656","PERIOD":"95.593","NORAD_CAT_ID":"48333","MEAN_ELEMENT_THEORY":"SGP4","GP_ID":"210367127","RCS_SIZE":"LARGE","TLE_LINE1":"1 48333U 21036BK  22228.87292837  .00001125  00000-0  94419-4 0  9995","FILE":"3538178","APOAPSIS":"548.262","SITE":"AFETR","TLE_LINE2":"2 48333  53.0553 181.2008 0001480  67.9656 292.1490 15.06392250 71970","MEAN_MOTION_DOT":"0.00001125","MEAN_MOTION":"15.06392250","DECAY_DATE":null,"PERIAPSIS":"546.212","BSTAR":"0.00009441900000","LAUNCH_DATE":"2021-04-29","ECCENTRICITY":"0.00014800","OBJECT_ID":"2021-036BK","COUNTRY_CODE":"US","ELEMENT_SET_NO":"999","EPHEMERIS_TYPE":"0","SEMIMAJOR_AXIS":"6925.372","MEAN_ANOMALY":"292.1490","REF_FRAME":"TEME","EPOCH":"2022-08-16T20:57:01.011168","OBJECT_NAME":"STARLINK-2518","MEAN_MOTION_DDOT":"0.0000000000000","REV_AT_EPOCH":"7197","CENTER_NAME":"EARTH","OBJECT_TYPE":"PAYLOAD","TIME_SYSTEM":"UTC","RA_OF_ASC_NODE":"181.2008","INCLINATION":"53.0553"},{"MEAN_ELEMENT_THEORY":"SGP4","NORAD_CAT_ID":"48334","ARG_OF_PERICENTER":"71.4946","CLASSIFICATION_TYPE":"U","PERIOD":"95.592","TLE_LINE1":"1 48334U 21036BL  22228.86924224  .00000903  00000-0  79525-4 0  9991","RCS_SIZE":"LARGE","GP_ID":"210365875","TLE_LINE2":"2 48334  53.0540 181.2191 0001393  71.4946 288.6194 15.06397061 71971","FILE":"3538178","APOAPSIS":"548.187","SITE":"AFETR","DECAY_DATE":null,"PERIAPSIS":"546.258","MEAN_MOTION":"15.06397061","MEAN_MOTION_DOT":"0.00000903","LAUNCH_DATE":"2021-04-29","ECCENTRICITY":"0.00013930","BSTAR":"0.00007952500000","EPHEMERIS_TYPE":"0","SEMIMAJOR_AXIS":"6925.358","REF_FRAME":"TEME","MEAN_ANOMALY":"288.6194","EPOCH":"2022-08-16T20:51:42.529536","OBJECT_ID":"2021-036BL","COUNTRY_CODE":"US","ELEMENT_SET_NO":"999","OBJECT_TYPE":"PAYLOAD","CENTER_NAME":"EARTH","REV_AT_EPOCH":"7197","TIME_SYSTEM":"UTC","OBJECT_NAME":"STARLINK-2470","MEAN_MOTION_DDOT":"0.0000000000000","RA_OF_ASC_NODE":"181.2191","INCLINATION":"53.0540"},{"ARG_OF_PERICENTER":"73.3144","CLASSIFICATION_TYPE":"U","PERIOD":"95.592","NORAD_CAT_ID":"48335","MEAN_ELEMENT_THEORY":"SGP4","RCS_SIZE":"LARGE","GP_ID":"210344691","TLE_LINE1":"1 48335U 21036BM  22228.86554718  .00000759  00000-0  69865-4 0  9994","APOAPSIS":"548.164","FILE":"3538132","SITE":"AFETR","TLE_LINE2":"2 48335  53.0533 181.2559 0001392  73.3144 286.7998 15.06404518 72565","MEAN_MOTION":"15.06404518","MEAN_MOTION_DOT":"0.00000759","DECAY_DATE":null,"PERIAPSIS":"546.236","BSTAR":"0.00006986500000","LAUNCH_DATE":"2021-04-29","ECCENTRICITY":"0.00013920","OBJECT_ID":"2021-036BM","COUNTRY_CODE":"US","ELEMENT_SET_NO":"999","EPHEMERIS_TYPE":"0","SEMIMAJOR_AXIS":"6925.335","REF_FRAME":"TEME","MEAN_ANOMALY":"286.7998","EPOCH":"2022-08-16T20:46:23.276352","OBJECT_NAME":"STARLINK-2441","MEAN_MOTION_DDOT":"0.0000000000000","OBJECT_TYPE":"PAYLOAD","REV_AT_EPOCH":"7256","CENTER_NAME":"EARTH","TIME_SYSTEM":"UTC","RA_OF_ASC_NODE":"181.2559","INCLINATION":"53.0533"},{"CLASSIFICATION_TYPE":"U","ARG_OF_PERICENTER":"75.6121","PERIOD":"95.592","MEAN_ELEMENT_THEORY":"SGP4","NORAD_CAT_ID":"48353","GP_ID":"210367378","RCS_SIZE":"LARGE","TLE_LINE1":"1 48353U 21038A   22228.80473846  .00000985  00000-0  85003-4 0  9995","APOAPSIS":"548.400","FILE":"3538178","SITE":"AFETR","TLE_LINE2":"2 48353  53.0546  81.5279 0001710  75.6121 284.5057 15.06399229 70959","MEAN_MOTION_DOT":"0.00000985","MEAN_MOTION":"15.06399229","DECAY_DATE":null,"PERIAPSIS":"546.032","BSTAR":"0.00008500300000","LAUNCH_DATE":"2021-05-04","ECCENTRICITY":"0.00017100","ELEMENT_SET_NO":"999","COUNTRY_CODE":"US","OBJECT_ID":"2021-038A","EPHEMERIS_TYPE":"0","SEMIMAJOR_AXIS":"6925.351","EPOCH":"2022-08-16T19:18:49.402944","REF_FRAME":"TEME","MEAN_ANOMALY":"284.5057","OBJECT_NAME":"STARLINK-2613","MEAN_MOTION_DDOT":"0.0000000000000","REV_AT_EPOCH":"7095","CENTER_NAME":"EARTH","OBJECT_TYPE":"PAYLOAD","TIME_SYSTEM":"UTC","RA_OF_ASC_NODE":"81.5279","INCLINATION":"53.0546"},{"ECCENTRICITY":"0.00014560","LAUNCH_DATE":"2021-05-04","BSTAR":"0.00017513000000","EPOCH":"2022-08-16T17:37:58.818720","SEMIMAJOR_AXIS":"6925.330","REF_FRAME":"TEME","MEAN_ANOMALY":"274.5400","EPHEMERIS_TYPE":"0","COUNTRY_CODE":"US","ELEMENT_SET_NO":"999","OBJECT_ID":"2021-038B","TIME_SYSTEM":"UTC","REV_AT_EPOCH":"7153","CENTER_NAME":"EARTH","OBJECT_TYPE":"PAYLOAD","MEAN_MOTION_DDOT":"0.0000000000000","OBJECT_NAME":"STARLINK-2674","RA_OF_ASC_NODE":"81.8479","INCLINATION":"53.0534","MEAN_ELEMENT_THEORY":"SGP4","NORAD_CAT_ID":"48354","PERIOD":"95.592","CLASSIFICATION_TYPE":"U","ARG_OF_PERICENTER":"85.5755","TLE_LINE1":"1 48354U 21038B   22228.73470855  .00002328  00000-0  17513-3 0  9998","GP_ID":"210342196","RCS_SIZE":"LARGE","TLE_LINE2":"2 48354  53.0534  81.8479 0001456  85.5755 274.5400 15.06406035 71532","SITE":"AFETR","FILE":"3538047","APOAPSIS":"548.203","PERIAPSIS":"546.187","DECAY_DATE":null,"MEAN_MOTION_DOT":"0.00002328","MEAN_MOTION":"15.06406035"},{"FILE":"3537973","APOAPSIS":"548.334","SITE":"AFETR","TLE_LINE2":"2 48355  53.0542  83.6411 0001626  79.2942 280.8230 15.06401950 70884","MEAN_MOTION_DOT":"0.00002496","MEAN_MOTION":"15.06401950","DECAY_DATE":null,"PERIAPSIS":"546.082","CLASSIFICATION_TYPE":"U","ARG_OF_PERICENTER":"79.2942","PERIOD":"95.592","NORAD_CAT_ID":"48355","MEAN_ELEMENT_THEORY":"SGP4","GP_ID":"210337153","RCS_SIZE":"LARGE","TLE_LINE1":"1 48355U 21038C   22228.33293653  .00002496  00000-0  18638-3 0  9999","OBJECT_NAME":"STARLINK-2635","MEAN_MOTION_DDOT":"0.0000000000000","REV_AT_EPOCH":"7088","CENTER_NAME":"EARTH","OBJECT_TYPE":"PAYLOAD","TIME_SYSTEM":"UTC","INCLINATION":"53.0542","RA_OF_ASC_NODE":"83.6411","BSTAR":"0.00018638000000","LAUNCH_DATE":"2021-05-04","ECCENTRICITY":"0.00016260","OBJECT_ID":"2021-038C","COUNTRY_CODE":"US","ELEMENT_SET_NO":"999","EPHEMERIS_TYPE":"0","SEMIMAJOR_AXIS":"6925.343","EPOCH":"2022-08-16T07:59:25.716192","REF_FRAME":"TEME","MEAN_ANOMALY":"280.8230"},{"APOAPSIS":"548.213","FILE":"3538050","SITE":"AFETR","TLE_LINE2":"2 48356  53.0536  81.8597 0001447  86.3912 273.7242 15.06400858 71522","MEAN_MOTION":"15.06400858","MEAN_MOTION_DOT":"0.00002166","DECAY_DATE":null,"PERIAPSIS":"546.209","ARG_OF_PERICENTER":"86.3912","CLASSIFICATION_TYPE":"U","PERIOD":"95.592","NORAD_CAT_ID":"48356","MEAN_ELEMENT_THEORY":"SGP4","RCS_SIZE":"LARGE","GP_ID":"210342583","TLE_LINE1":"1 48356U 21038D   22228.72733243  .00002166  00000-0  16425-3 0  9993","OBJECT_NAME":"STARLINK-2637","MEAN_MOTION_DDOT":"0.0000000000000","OBJECT_TYPE":"PAYLOAD","CENTER_NAME":"EARTH","REV_AT_EPOCH":"7152","TIME_SYSTEM":"UTC","INCLINATION":"53.0536","RA_OF_ASC_NODE":"81.8597","BSTAR":"0.00016425000000","LAUNCH_DATE":"2021-05-04","ECCENTRICITY":"0.00014470","ELEMENT_SET_NO":"999","COUNTRY_CODE":"US","OBJECT_ID":"2021-038D","EPHEMERIS_TYPE":"0","SEMIMAJOR_AXIS":"6925.346","MEAN_ANOMALY":"273.7242","EPOCH":"2022-08-16T17:27:21.521952","REF_FRAME":"TEME"}];
